[{"OBJECT_NAME":"NUSAT-43 (R DIENG-KUNTZ)","OBJECT_ID":"2023-084AN","EPOCH":"2026-03-08T21:55:35.625792","MEAN_MOTION":15.74780826,"ECCENTRICITY":0.00059701,"INCLINATION":97.4369,"RA_OF_ASC_NODE":210.0765,"ARG_OF_PERICENTER":240.2474,"MEAN_ANOMALY":119.8197,"EPHEMERIS_TYPE":0,"CLASSIFICATION_TYPE":"U","NORAD_CAT_ID":56968,"ELEMENT_SET_NO":999,"REV_AT_EPOCH":15344,"BSTAR":0.0011289476,"MEAN_MOTION_DOT":0.00168767,"MEAN_MOTION_DDOT":0},{"OBJECT_NAME":"STARLINK-35934","OBJECT_ID":"2026-014L","EPOCH":"2026-03-09T16:09:01.841472","MEAN_MOTION":15.75208634,"ECCENTRICITY":0.00016833,"INCLINATION":97.2843,"RA_OF_ASC_NODE":313.6495,"ARG_OF_PERICENTER":34.4185,"MEAN_ANOMALY":325.7189,"EPHEMERIS_TYPE":0,"CLASSIFICATION_TYPE":"U","NORAD_CAT_ID":67542,"ELEMENT_SET_NO":999,"REV_AT_EPOCH":856,"BSTAR":0.0011325647,"MEAN_MOTION_DOT":0.00172393,"MEAN_MOTION_DDOT":0}]
